CCSDS_OMM_VERS = 2.0
CREATION_DATE  = 
ORIGINATOR     = 

OBJECT_NAME    = STARLINK-36527
OBJECT_ID      = 2026-020Q
CENTER_NAME    = EARTH
REF_FRAME      = TEME
TIME_SYSTEM    = UTC
MEAN_ELEMENT_THEORY = SGP/SGP4

EPOCH          = 2026-02-18T21:16:34.526208
MEAN_MOTION    = 15.82072482
ECCENTRICITY   = .0003663
INCLINATION    = 42.9967
RA_OF_ASC_NODE = 255.9873
ARG_OF_PERICENTER = 304.9791
MEAN_ANOMALY   = 55.0736

EPHEMERIS_TYPE = 0
CLASSIFICATION_TYPE = U
NORAD_CAT_ID   = 67631
ELEMENT_SET_NO = 999
REV_AT_EPOCH   = 312
BSTAR          = .84986E-3
MEAN_MOTION_DOT = .182772E-2
MEAN_MOTION_DDOT = 0

CCSDS_OMM_VERS = 2.0
CREATION_DATE  = 
ORIGINATOR     = 

OBJECT_NAME    = STARLINK-36633
OBJECT_ID      = 2026-020R
CENTER_NAME    = EARTH
REF_FRAME      = TEME
TIME_SYSTEM    = UTC
MEAN_ELEMENT_THEORY = SGP/SGP4

EPOCH          = 2026-02-18T19:45:09.710784
MEAN_MOTION    = 15.80199276
ECCENTRICITY   = .0002146
INCLINATION    = 42.9956
RA_OF_ASC_NODE = 256.3687
ARG_OF_PERICENTER = 262.7219
MEAN_ANOMALY   = 97.3408

EPHEMERIS_TYPE = 0
CLASSIFICATION_TYPE = U
NORAD_CAT_ID   = 67632
ELEMENT_SET_NO = 999
REV_AT_EPOCH   = 311
BSTAR          = -.48056E-2
MEAN_MOTION_DOT = -.844497E-2
MEAN_MOTION_DDOT = 0

CCSDS_OMM_VERS = 2.0
CREATION_DATE  = 
ORIGINATOR     = 

OBJECT_NAME    = STARLINK-36637
OBJECT_ID      = 2026-020S
CENTER_NAME    = EARTH
REF_FRAME      = TEME
TIME_SYSTEM    = UTC
MEAN_ELEMENT_THEORY = SGP/SGP4

EPOCH          = 2026-02-18T00:38:50.240832
MEAN_MOTION    = 15.76438526
ECCENTRICITY   = .00019432
INCLINATION    = 42.9972
RA_OF_ASC_NODE = 261.5985
ARG_OF_PERICENTER = 270.3809
MEAN_ANOMALY   = 89.6838

EPHEMERIS_TYPE = 0
CLASSIFICATION_TYPE = U
NORAD_CAT_ID   = 67633
ELEMENT_SET_NO = 999
REV_AT_EPOCH   = 298
BSTAR          = .15735872E-2
MEAN_MOTION_DOT = .264768E-2
MEAN_MOTION_DDOT = 0

CCSDS_OMM_VERS = 2.0
CREATION_DATE  = 
ORIGINATOR     = 

OBJECT_NAME    = STARLINK-36617
OBJECT_ID      = 2026-020T
CENTER_NAME    = EARTH
REF_FRAME      = TEME
TIME_SYSTEM    = UTC
MEAN_ELEMENT_THEORY = SGP/SGP4

EPOCH          = 2026-02-18T19:42:45.046944
MEAN_MOTION    = 15.82119877
ECCENTRICITY   = .0001909
INCLINATION    = 42.9970
RA_OF_ASC_NODE = 256.3549
ARG_OF_PERICENTER = 249.9841
MEAN_ANOMALY   = 110.0825

EPHEMERIS_TYPE = 0
CLASSIFICATION_TYPE = U
NORAD_CAT_ID   = 67634
ELEMENT_SET_NO = 999
REV_AT_EPOCH   = 311
BSTAR          = .13174E-2
MEAN_MOTION_DOT = .287669E-2
MEAN_MOTION_DDOT = 0

CCSDS_OMM_VERS = 2.0
CREATION_DATE  = 
ORIGINATOR     = 

OBJECT_NAME    = STARLINK-36627
OBJECT_ID      = 2026-020U
CENTER_NAME    = EARTH
REF_FRAME      = TEME
TIME_SYSTEM    = UTC
MEAN_ELEMENT_THEORY = SGP/SGP4

EPOCH          = 2026-02-17T22:58:08.884128
MEAN_MOTION    = 15.76418041
ECCENTRICITY   = .0001778
INCLINATION    = 42.9966
RA_OF_ASC_NODE = 261.9306
ARG_OF_PERICENTER = 275.3532
MEAN_ANOMALY   = 84.7135

EPHEMERIS_TYPE = 0
CLASSIFICATION_TYPE = U
NORAD_CAT_ID   = 67635
ELEMENT_SET_NO = 999
REV_AT_EPOCH   = 297
BSTAR          = .22253E-2
MEAN_MOTION_DOT = .379458E-2
MEAN_MOTION_DDOT = 0

CCSDS_OMM_VERS = 2.0
CREATION_DATE  = 
ORIGINATOR     = 

OBJECT_NAME    = STARLINK-36624
OBJECT_ID      = 2026-020V
CENTER_NAME    = EARTH
REF_FRAME      = TEME
TIME_SYSTEM    = UTC
MEAN_ELEMENT_THEORY = SGP/SGP4

EPOCH          = 2026-02-18T20:00:01.999008
MEAN_MOTION    = 15.76359557
ECCENTRICITY   = .0001619
INCLINATION    = 42.9991
RA_OF_ASC_NODE = 256.3269
ARG_OF_PERICENTER = 278.9867
MEAN_ANOMALY   = 132.1411

EPHEMERIS_TYPE = 0
CLASSIFICATION_TYPE = U
NORAD_CAT_ID   = 67636
ELEMENT_SET_NO = 999
REV_AT_EPOCH   = 436
BSTAR          = -.83982E-4
MEAN_MOTION_DOT = -.14136E-3
MEAN_MOTION_DDOT = 0

CCSDS_OMM_VERS = 2.0
CREATION_DATE  = 
ORIGINATOR     = 

OBJECT_NAME    = STARLINK-36610
OBJECT_ID      = 2026-020W
CENTER_NAME    = EARTH
REF_FRAME      = TEME
TIME_SYSTEM    = UTC
MEAN_ELEMENT_THEORY = SGP/SGP4

EPOCH          = 2026-02-17T23:01:18.017184
MEAN_MOTION    = 15.76435465
ECCENTRICITY   = .0001662
INCLINATION    = 42.9970
RA_OF_ASC_NODE = 261.9484
ARG_OF_PERICENTER = 267.0936
MEAN_ANOMALY   = 92.9744

EPHEMERIS_TYPE = 0
CLASSIFICATION_TYPE = U
NORAD_CAT_ID   = 67637
ELEMENT_SET_NO = 999
REV_AT_EPOCH   = 297
BSTAR          = .22548E-2
MEAN_MOTION_DOT = .385039E-2
MEAN_MOTION_DDOT = 0

CCSDS_OMM_VERS = 2.0
CREATION_DATE  = 
ORIGINATOR     = 

OBJECT_NAME    = STARLINK-36599
OBJECT_ID      = 2026-020X
CENTER_NAME    = EARTH
REF_FRAME      = TEME
TIME_SYSTEM    = UTC
MEAN_ELEMENT_THEORY = SGP/SGP4

EPOCH          = 2026-02-18T21:07:40.750464
MEAN_MOTION    = 15.82113669
ECCENTRICITY   = .0002685
INCLINATION    = 42.9960
RA_OF_ASC_NODE = 255.9349
ARG_OF_PERICENTER = 265.8422
MEAN_ANOMALY   = 94.2142

EPHEMERIS_TYPE = 0
CLASSIFICATION_TYPE = U
NORAD_CAT_ID   = 67638
ELEMENT_SET_NO = 999
REV_AT_EPOCH   = 312
BSTAR          = .84864E-3
MEAN_MOTION_DOT = .182833E-2
MEAN_MOTION_DDOT = 0

CCSDS_OMM_VERS = 2.0
CREATION_DATE  = 
ORIGINATOR     = 

OBJECT_NAME    = STARLINK-36595
OBJECT_ID      = 2026-020Y
CENTER_NAME    = EARTH
REF_FRAME      = TEME
TIME_SYSTEM    = UTC
MEAN_ELEMENT_THEORY = SGP/SGP4

EPOCH          = 2026-02-18T20:00:01.999008
MEAN_MOTION    = 15.77221928
ECCENTRICITY   = .0001929
INCLINATION    = 42.9989
RA_OF_ASC_NODE = 256.2342
ARG_OF_PERICENTER = 275.4076
MEAN_ANOMALY   = 172.5367

EPHEMERIS_TYPE = 0
CLASSIFICATION_TYPE = U
NORAD_CAT_ID   = 67639
ELEMENT_SET_NO = 999
REV_AT_EPOCH   = 436
BSTAR          = -.74985E-2
MEAN_MOTION_DOT = -.1133613E-1
MEAN_MOTION_DDOT = 0

CCSDS_OMM_VERS = 2.0
CREATION_DATE  = 
ORIGINATOR     = 

OBJECT_NAME    = STARLINK-36570
OBJECT_ID      = 2026-020Z
CENTER_NAME    = EARTH
REF_FRAME      = TEME
TIME_SYSTEM    = UTC
MEAN_ELEMENT_THEORY = SGP/SGP4

EPOCH          = 2026-02-18T21:40:24.127392
MEAN_MOTION    = 15.76415663
ECCENTRICITY   = .000172
INCLINATION    = 42.9963
RA_OF_ASC_NODE = 256.1176
ARG_OF_PERICENTER = 275.3414
MEAN_ANOMALY   = 84.7260

EPHEMERIS_TYPE = 0
CLASSIFICATION_TYPE = U
NORAD_CAT_ID   = 67640
ELEMENT_SET_NO = 999
REV_AT_EPOCH   = 312
BSTAR          = .1028E-2
MEAN_MOTION_DOT = .170704E-2
MEAN_MOTION_DDOT = 0

CCSDS_OMM_VERS = 2.0
CREATION_DATE  = 
ORIGINATOR     = 

OBJECT_NAME    = STARLINK-36514
OBJECT_ID      = 2026-020AA
CENTER_NAME    = EARTH
REF_FRAME      = TEME
TIME_SYSTEM    = UTC
MEAN_ELEMENT_THEORY = SGP/SGP4

EPOCH          = 2026-02-18T21:03:15.251904
MEAN_MOTION    = 15.82042797
ECCENTRICITY   = .0003592
INCLINATION    = 42.9965
RA_OF_ASC_NODE = 255.9087
ARG_OF_PERICENTER = 309.3772
MEAN_ANOMALY   = 50.6781

EPHEMERIS_TYPE = 0
CLASSIFICATION_TYPE = U
NORAD_CAT_ID   = 67641
ELEMENT_SET_NO = 999
REV_AT_EPOCH   = 312
BSTAR          = .16096E-2
MEAN_MOTION_DOT = .353065E-2
MEAN_MOTION_DDOT = 0

CCSDS_OMM_VERS = 2.0
CREATION_DATE  = 
ORIGINATOR     = 

OBJECT_NAME    = STARLINK-36556
OBJECT_ID      = 2026-020AB
CENTER_NAME    = EARTH
REF_FRAME      = TEME
TIME_SYSTEM    = UTC
MEAN_ELEMENT_THEORY = SGP/SGP4

EPOCH          = 2026-02-18T20:00:01.999008
MEAN_MOTION    = 15.76362635
ECCENTRICITY   = .0001805
INCLINATION    = 42.9983
RA_OF_ASC_NODE = 256.3882
ARG_OF_PERICENTER = 267.7006
MEAN_ANOMALY   = 118.5361

EPHEMERIS_TYPE = 0
CLASSIFICATION_TYPE = U
NORAD_CAT_ID   = 67642
ELEMENT_SET_NO = 999
REV_AT_EPOCH   = 436
BSTAR          = -.48923E-4
MEAN_MOTION_DOT = -.8445E-4
MEAN_MOTION_DDOT = 0

