STARLINK-36527          
1 67631U 26020Q   26049.88651072  .00182772  00000+0  84986-3 0  9995
2 67631  42.9967 255.9873 0003663 304.9791  55.0736 15.82072482  3123
STARLINK-36633          
1 67632U 26020R   26049.82302906 -.00844497  00000+0 -48056-2 0  9997
2 67632  42.9956 256.3687 0002146 262.7219  97.3408 15.80199276  3114
STARLINK-36637          
1 67633U 26020S   26049.02697038  .00264768  00000+0  15736-2 0  9997
2 67633  42.9972 261.5985 0001943 270.3809  89.6838 15.76438526  2980
STARLINK-36617          
1 67634U 26020T   26049.82135471  .00287669  00000+0  13174-2 0  9993
2 67634  42.9970 256.3549 0001909 249.9841 110.0825 15.82119877  3110
STARLINK-36627          
1 67635U 26020U   26048.95704727  .00379458  00000+0  22253-2 0  9999
2 67635  42.9966 261.9306 0001778 275.3532  84.7135 15.76418041  2975
STARLINK-36624          
1 67636U 26020V   26049.83335647 -.00014136  00000+0 -83982-4 0  9998
2 67636  42.9991 256.3269 0001619 278.9867 132.1411 15.76359557  4360
STARLINK-36610          
1 67637U 26020W   26048.95923631  .00385039  00000+0  22548-2 0  9997
2 67637  42.9970 261.9484 0001662 267.0936  92.9744 15.76435465  2973
STARLINK-36599          
1 67638U 26020X   26049.88033276  .00182833  00000+0  84864-3 0  9995
2 67638  42.9960 255.9349 0002685 265.8422  94.2142 15.82113669  3129
STARLINK-36595          
1 67639U 26020Y   26049.83335647 -.01133613  00000+0 -74985-2 0  9995
2 67639  42.9989 256.2342 0001929 275.4076 172.5367 15.77221928  4368
STARLINK-36570          
1 67640U 26020Z   26049.90305703  .00170704  00000+0  10280-2 0  9992
2 67640  42.9963 256.1176 0001720 275.3414  84.7260 15.76415663  3129
STARLINK-36514          
1 67641U 26020AA  26049.87725986  .00353065  00000+0  16096-2 0  9992
2 67641  42.9965 255.9087 0003592 309.3772  50.6781 15.82042797  3125
STARLINK-36556          
1 67642U 26020AB  26049.83335647 -.00008445  00000+0 -48923-4 0  9997
2 67642  42.9983 256.3882 0001805 267.7006 118.5361 15.76362635  4360
